[{"OBJECT_NAME":"HULIANWANG DIGUI-91","OBJECT_ID":"2025-231E","EPOCH":"2026-03-09T19:52:38.215776","MEAN_MOTION":13.29330487,"ECCENTRICITY":6.352e-5,"INCLINATION":50.0007,"RA_OF_ASC_NODE":172.0243,"ARG_OF_PERICENTER":210.0735,"MEAN_ANOMALY":150.01,"EPHEMERIS_TYPE":0,"CLASSIFICATION_TYPE":"U","NORAD_CAT_ID":65999,"ELEMENT_SET_NO":999,"REV_AT_EPOCH":1967,"BSTAR":0.00010788563,"MEAN_MOTION_DOT":-7.4e-7,"MEAN_MOTION_DDOT":0},{"OBJECT_NAME":"THOR AGENA B R\/B","OBJECT_ID":"1966-040B","EPOCH":"2026-03-09T18:22:07.944672","MEAN_MOTION":13.36299878,"ECCENTRICITY":0.00555956,"INCLINATION":100.3233,"RA_OF_ASC_NODE":354.2005,"ARG_OF_PERICENTER":277.7844,"MEAN_ANOMALY":136.9319,"EPHEMERIS_TYPE":0,"CLASSIFICATION_TYPE":"U","NORAD_CAT_ID":2174,"ELEMENT_SET_NO":999,"REV_AT_EPOCH":91594,"BSTAR":0.00014580887,"MEAN_MOTION_DOT":2.9e-7,"MEAN_MOTION_DDOT":0}]
